EUTELSAT 8 WEST B       
1 40875U 15039B   25340.28245547 -.00000058  00000+0  00000+0 0  9995
2 40875   0.0647 353.5592 0004128 263.4430 272.0186  1.00271561 37720
EUTELSAT 9B             
1 41310U 16005A   25340.28583550  .00000070  00000+0  00000+0 0  9996
2 41310   0.0735  75.7395 0005018 191.5268 279.9567  1.00272299 36183
EUTELSAT 65 WEST A      
1 41382U 16014A   25340.27110207 -.00000268  00000+0  00000+0 0  9999
2 41382   0.0490 353.9577 0002881 270.2220 203.5224  1.00269686 35606
EUTELSAT 117 WEST B     
1 41589U 16038B   25339.86502971 -.00000001  00000+0  00000+0 0  9995
2 41589   0.0067 150.7186 0000395 345.3636 133.2375  1.00266552 34724
EUTELSAT 172B           
1 42741U 17029B   25339.89007773  .00000004  00000+0  00000+0 0  9992
2 42741   0.0102  82.7669 0000156 152.6810 331.9231  1.00271098 31796
EUTELSAT 7C             
1 44334U 19034B   25340.14271255  .00000056  00000+0  00000+0 0  9995
2 44334   0.0751 179.1623 0003450  60.5290 253.8532  1.00270039  4909
EUTELSAT 5 WEST B       
1 44624U 19067A   25340.25600355 -.00000034  00000+0  00000+0 0  9999
2 44624   0.0675 334.5207 0003592 281.3365 266.6069  1.00270399 22506
EUTELSAT KONNECT        
1 45027U 20005B   25339.92881795  .00000058  00000+0  00000+0 0  9997
2 45027   0.0712  98.3329 0001855 187.6480 130.5550  1.00267987 22381
